0 COSMOS 2251 DEB
1 34789U 93036AAS 13281.75972404  .00003733  00000-0  17756-2 0  9225
2 34789 074.2111 293.5411 0132777 275.2689 199.2148 14.15201245237056
0 COSMOS 2251 DEB
1 34789U 93036AAS 13283.09147020  .00004857  00000-0  23057-2 0  9232
2 34789 074.2115 291.2030 0132698 272.5742 144.1164 14.15217350237246
0 COSMOS 2251 DEB
1 34789U 93036AAS 13284.16374109  .00005241  00000-0  24869-2 0  9242
2 34789 074.2115 289.3199 0132636 270.4390 207.0748 14.15225210237395
0 COSMOS 2251 DEB
1 34789U 93036AAS 13285.44278231  .00004817  00000-0  22863-2 0  9254
2 34789 074.2111 287.0735 0132558 267.8966 243.5151 14.15235824237579
0 COSMOS 2251 DEB
1 34789U 93036AAS 13286.70852089  .00005034  00000-0  23888-2 0  9264
2 34789 074.2115 284.8508 0132475 265.2977 212.3186 14.15247311237754
0 COSMOS 2251 DEB
1 34789U 93036AAS 13288.68818436  .00006611  00000-0  31322-2 0  9276
2 34789 074.2108 281.3732 0132206 261.4884 218.3554 14.15272534238036
0 COSMOS 2251 DEB
1 34789U 93036AAS 13290.72543162  .00006931  00000-0  32823-2 0  9288
2 34789 074.2112 277.7946 0132006 257.4397 158.0821 14.15295398238321
0 COSMOS 2251 DEB
1 34789U 93036AAS 13292.07112233  .00005267  00000-0  24971-2 0  9296
2 34789 074.2118 275.4299 0131979 254.6883 174.5176 14.15311377238513
0 COSMOS 2251 DEB
1 34789U 93036AAS 13293.43268098  .00006326  00000-0  29962-2 0  9302
2 34789 074.2122 273.0387 0131713 252.0227 271.7622 14.15326464238700
0 COSMOS 2251 DEB
1 34789U 93036AAS 13295.12355130  .00006785  00000-0  32119-2 0  9312
2 34789 074.2117 270.0689 0131589 248.6195 247.0726 14.15344651238947
